NORAD_CAT_ID,OBJECT_NAME,OBJECT_TYPE,EPOCH,MEAN_MOTION,ECCENTRICITY,INCLINATION,RA_OF_ASC_NODE,ARG_OF_PERICENTER,MEAN_ANOMALY,BSTAR,MEAN_MOTION_DOT,MEAN_MOTION_DDOT,TLE_LINE0,TLE_LINE1,TLE_LINE2,SEMIMAJOR_AXIS,PERIOD,APOGEE,PERIGEE,DECAYED
54074.0,STARLINK-5192,PAYLOAD,2023-08-16 00:24:29,15.08835991,0.0001198,53.216,228.6245,82.0399,278.0729,5.6858e-05,6.17e-06,0.0,0 STARLINK-5192,1 54074U 22136Z   23228.01700711  .00000617  00000-0  56858-4 0  9998,2 54074  53.2160 228.6245 0001198  82.0399 278.0729 15.08835991 45922,6917.893,95.438,540.586,538.929,0.0
54074.0,STARLINK-5192,PAYLOAD,2023-08-17 05:01:25,15.08840933,0.0001277,53.2166,223.2714,86.6649,273.4489,1.0324e-05,-1.24e-06,0.0,0 STARLINK-5192,1 54074U 22136Z   23229.20932523 -.00000124  00000-0  10324-4 0  9990,2 54074  53.2166 223.2714 0001277  86.6649 273.4489 15.08840933 46101,6917.878,95.437,540.626,538.859,0.0
54074.0,STARLINK-5192,PAYLOAD,2023-08-18 08:02:59,15.0883964,0.0001241,53.2159,218.217,90.0162,270.0972,8.186e-05,1.015e-05,0.0,0 STARLINK-5192,1 54074U 22136Z   23230.33540532  .00001015  00000-0  81860-4 0  9993,2 54074  53.2159 218.2170 0001241  90.0162 270.0972 15.08839640 46274,6917.881,95.438,540.605,538.888,0.0
54074.0,STARLINK-5192,PAYLOAD,2023-08-19 11:04:32,15.08842871,0.0001251,53.2157,213.162,89.4556,270.658,8.7122e-05,1.099e-05,0.0,0 STARLINK-5192,1 54074U 22136Z   23231.46148539  .00001099  00000-0  87122-4 0  9998,2 54074  53.2157 213.1620 0001251  89.4556 270.6580 15.08842871 46446,6917.872,95.437,540.602,538.871,0.0
54074.0,STARLINK-5192,PAYLOAD,2023-08-20 02:58:24,15.0883387,0.0001351,53.2167,210.1895,100.7048,259.4096,2.0933e-05,4.5e-07,0.0,0 STARLINK-5192,1 54074U 22136Z   23232.12389503  .00000045  00000-0  20933-4 0  9997,2 54074  53.2167 210.1895 0001351 100.7048 259.4096 15.08833870 46549,6917.899,95.438,540.699,538.83,0.0
54074.0,STARLINK-5192,PAYLOAD,2023-08-20 10:55:19,15.08842444,0.0001286,53.2161,208.7015,96.8903,263.2235,6.8414e-05,8.01e-06,0.0,0 STARLINK-5192,1 54074U 22136Z   23232.45508851  .00000801  00000-0  68414-4 0  9998,2 54074  53.2161 208.7015 0001286  96.8903 263.2235 15.08842444 46592,6917.873,95.437,540.628,538.848,0.0
54074.0,STARLINK-5192,PAYLOAD,2023-08-22 04:15:21,15.08838537,0.0001428,53.2176,200.9665,86.7506,273.365,2.8188e-05,1.61e-06,0.0,0 STARLINK-5192,1 54074U 22136Z   23234.17733620  .00000161  00000-0  28188-4 0  9996,2 54074  53.2176 200.9665 0001428  86.7506 273.3650 15.08838537 46858,6917.885,95.438,540.738,538.762,0.0
54074.0,STARLINK-5192,PAYLOAD,2023-08-23 04:06:08,15.08845989,0.0001359,53.2162,196.5078,96.5906,263.5241,6.6091e-05,7.64e-06,0.0,0 STARLINK-5192,1 54074U 22136Z   23235.17093044  .00000764  00000-0  66091-4 0  9990,2 54074  53.2162 196.5078 0001359  96.5906 263.5241 15.08845989 47001,6917.862,95.437,540.667,538.787,0.0
54074.0,STARLINK-5192,PAYLOAD,2023-08-24 21:26:10,15.08834363,0.0001379,53.2173,188.7792,98.8084,261.3064,-1.5611e-05,-5.36e-06,0.0,0 STARLINK-5192,1 54074U 22136Z   23236.89318171 -.00000536  00000-0 -15611-4 0  9992,2 54074  53.2173 188.7792 0001379  98.8084 261.3064 15.08834363 46780,6917.898,95.438,540.717,538.809,0.0
54074.0,STARLINK-5192,PAYLOAD,2023-08-25 03:47:43,15.08839659,0.0001395,53.2175,187.5899,97.7222,262.3929,2.4166e-05,9.7e-07,0.0,0 STARLINK-5192,1 54074U 22136Z   23237.15813742  .00000097  00000-0  24166-4 0  9991,2 54074  53.2175 187.5899 0001395  97.7222 262.3929 15.08839659 47300,6917.881,95.438,540.711,538.781,0.0
54074.0,STARLINK-5192,PAYLOAD,2023-08-26 06:49:16,15.08842862,0.0001379,53.2174,182.5342,97.164,262.9509,7.7541e-05,9.46e-06,0.0,0 STARLINK-5192,1 54074U 22136Z   23238.28421598  .00000946  00000-0  77541-4 0  9998,2 54074  53.2174 182.5342 0001379  97.1640 262.9509 15.08842862 47475,6917.872,95.437,540.691,538.783,0.0
54074.0,STARLINK-5192,PAYLOAD,2023-08-27 01:53:54,15.08838833,0.0001381,53.2174,178.9663,84.5813,275.5337,7.246e-05,8.65e-06,0.0,0 STARLINK-5192,1 54074U 22136Z   23239.07910045  .00000865  00000-0  72460-4 0  9991,2 54074  53.2174 178.9663 0001381  84.5813 275.5337 15.08838833 47590,6917.884,95.438,540.704,538.794,0.0
54074.0,STARLINK-5192,PAYLOAD,2023-08-27 05:04:40,15.08846135,0.0001412,53.2177,178.3715,87.3696,272.7458,0.00013277,1.826e-05,0.0,0 STARLINK-5192,1 54074U 22136Z   23239.21157434  .00001826  00000-0  13277-3 0  9990,2 54074  53.2177 178.3715 0001412  87.3696 272.7458 15.08846135 47610,6917.862,95.437,540.703,538.75,0.0
54074.0,STARLINK-5192,PAYLOAD,2023-08-28 01:44:41,15.08839569,0.0001504,53.2169,174.5052,92.1228,267.9937,-2.2237e-06,-3.23e-06,0.0,0 STARLINK-5192,1 54074U 22136Z   23240.07270262 -.00000323  00000-0 -22237-5 0  9992,2 54074  53.2169 174.5052 0001504  92.1228 267.9937 15.08839569 47745,6917.882,95.438,540.787,538.706,0.0
54074.0,STARLINK-5192,PAYLOAD,2023-08-28 12:52:23,15.0883892,0.0001384,53.2173,172.4238,86.8659,273.2492,4.9956e-06,-2.08e-06,0.0,0 STARLINK-5192,1 54074U 22136Z   23240.53638297 -.00000208  00000-0  49956-5 0  9997,2 54074  53.2173 172.4238 0001384  86.8659 273.2492 15.08838920 47338,6917.884,95.438,540.706,538.791,0.0
54074.0,STARLINK-5192,PAYLOAD,2023-08-29 01:35:28,15.08845633,0.0001354,53.2167,170.0453,94.2062,265.9085,3.1815e-05,2.19e-06,0.0,0 STARLINK-5192,1 54074U 22136Z   23241.06629862  .00000219  00000-0  31815-4 0  9999,2 54074  53.2167 170.0453 0001354  94.2062 265.9085 15.08845633 47898,6917.863,95.437,540.665,538.791,0.0
54074.0,STARLINK-5192,PAYLOAD,2023-08-29 12:43:10,15.0884442,0.0001349,53.216,167.9641,89.6777,270.437,3.1864e-05,2.19e-06,0.0,0 STARLINK-5192,1 54074U 22136Z   23241.52997863  .00000219  00000-0  31864-4 0  9993,2 54074  53.2160 167.9641 0001349  89.6777 270.4370 15.08844420 47486,6917.867,95.437,540.665,538.799,0.0
54074.0,STARLINK-5192,PAYLOAD,2023-08-30 01:26:15,15.08837489,0.0001499,53.2166,165.5849,91.102,269.0144,3.296e-05,2.37e-06,0.0,0 STARLINK-5192,1 54074U 22136Z   23242.05990469  .00000237  00000-0  32960-4 0  9995,2 54074  53.2166 165.5849 0001499  91.1020 269.0144 15.08837489 48044,6917.888,95.438,540.79,538.716,0.0
54074.0,STARLINK-5192,PAYLOAD,2023-08-30 12:33:57,15.08834744,0.0001123,53.2168,163.5021,102.4069,257.7049,-2.3043e-05,-6.54e-06,0.0,0 STARLINK-5192,1 54074U 22136Z   23242.52358640 -.00000654  00000-0 -23043-4 0  9993,2 54074  53.2168 163.5021 0001123 102.4069 257.7049 15.08834744 47632,6917.896,95.438,540.538,538.985,0.0
54074.0,STARLINK-5192,PAYLOAD,2023-08-31 01:17:03,15.08835788,0.0001356,53.2159,161.124,89.1598,270.9549,2.1464e-05,5.4e-07,0.0,0 STARLINK-5192,1 54074U 22136Z   23243.05350741  .00000054  00000-0  21464-4 0  9993,2 54074  53.2159 161.1240 0001356  89.1598 270.9549 15.08835788 47715,6917.893,95.438,540.696,538.82,0.0
54074.0,STARLINK-5192,PAYLOAD,2023-09-01 01:07:49,15.08837903,0.0001274,53.2165,156.6635,92.7839,267.3299,7.8593e-05,9.63e-06,0.0,0 STARLINK-5192,1 54074U 22136Z   23244.04710595  .00000963  00000-0  78593-4 0  9994,2 54074  53.2165 156.6635 0001274  92.7839 267.3299 15.08837903 48349,6917.887,95.438,540.633,538.87,0.0
54074.0,STARLINK-5192,PAYLOAD,2023-09-01 10:40:08,15.08840921,0.0001264,53.2165,154.8793,91.1388,268.9749,5.7292e-05,6.24e-06,0.0,0 STARLINK-5192,1 54074U 22136Z   23244.44454529  .00000624  00000-0  57292-4 0  9997,2 54074  53.2165 154.8793 0001264  91.1388 268.9749 15.08840921 47929,6917.878,95.437,540.617,538.868,0.0
54074.0,STARLINK-5192,PAYLOAD,2023-09-01 18:37:05,15.08746561,0.0001109,53.2207,153.3983,256.5944,103.4925,0.0015363,0.00024184,0.0,0 STARLINK-5192,1 54074U 22136Z   23244.77575754  .00024184  00000-0  15363-2 0  9995,2 54074  53.2207 153.3983 0001109 256.5944 103.4925 15.08746561 48457,6918.166,95.443,540.798,539.264,0.0
54074.0,STARLINK-5192,PAYLOAD,2023-09-02 02:33:59,15.08844571,0.0001207,53.2167,151.9059,88.0647,272.0483,0.00010915,1.45e-05,0.0,0 STARLINK-5192,1 54074U 22136Z   23245.10694223  .00001450  00000-0  10915-3 0  9996,2 54074  53.2167 151.9059 0001207  88.0647 272.0483 15.08844571 48505,6917.866,95.437,540.566,538.896,0.0
54074.0,STARLINK-5192,PAYLOAD,2023-09-02 10:30:56,15.0883878,0.0001759,53.2175,150.4158,86.583,273.5364,-1.1071e-05,-4.64e-06,0.0,0 STARLINK-5192,1 54074U 22136Z   23245.43814945 -.00000464  00000-0 -11071-4 0  9998,2 54074  53.2175 150.4158 0001759  86.5830 273.5364 15.08838780 48551,6917.884,95.438,540.966,538.532,0.0
54074.0,STARLINK-5192,PAYLOAD,2023-09-03 04:00:09,15.08850127,0.0001256,53.2169,147.1472,92.8035,267.3101,0.00013154,1.807e-05,0.0,0 STARLINK-5192,1 54074U 22136Z   23246.16678006  .00001807  00000-0  13154-3 0  9998,2 54074  53.2169 147.1472 0001256  92.8035 267.3101 15.08850127 48666,6917.849,95.437,540.583,538.846,0.0
54074.0,STARLINK-5192,PAYLOAD,2023-09-04 02:15:35,15.08836298,0.0001603,53.2179,142.981,81.5539,278.5635,-1.0915e-05,-4.62e-06,0.0,0 STARLINK-5192,1 54074U 22136Z   23247.09415535 -.00000462  00000-0 -10915-4 0  9998,2 54074  53.2179 142.9810 0001603  81.5539 278.5635 15.08836298 48801,6917.892,95.438,540.866,538.648,0.0
54074.0,STARLINK-5192,PAYLOAD,2023-09-04 10:12:30,15.08837204,0.0001657,53.2183,141.4944,80.7651,279.3528,5.2916e-05,5.54e-06,0.0,0 STARLINK-5192,1 54074U 22136Z   23247.42535429  .00000554  00000-0  52916-4 0  9997,2 54074  53.2183 141.4944 0001657  80.7651 279.3528 15.08837204 48373,6917.889,95.438,540.9,538.608,0.0
54074.0,STARLINK-5192,PAYLOAD,2023-09-05 02:06:21,15.08845403,0.0001273,53.217,138.5234,89.035,271.0788,2.4104e-05,9.6e-07,0.0,0 STARLINK-5192,1 54074U 22136Z   23248.08774984  .00000096  00000-0  24104-4 0  9990,2 54074  53.2170 138.5234 0001273  89.0350 271.0788 15.08845403 48951,6917.864,95.437,540.61,538.848,0.0
54074.0,STARLINK-5192,PAYLOAD,2023-09-06 01:57:08,15.08841803,0.0001356,53.2171,134.0626,87.8286,272.2861,0.00016375,2.319e-05,0.0,0 STARLINK-5192,1 54074U 22136Z   23249.08134704  .00002319  00000-0  16375-3 0  9991,2 54074  53.2171 134.0626 0001356  87.8286 272.2861 15.08841803 48623,6917.875,95.437,540.678,538.802,0.0
